start=new Date('2023-01-28T00:00:00.000Z').valueOf();
sats=[{"OBJECT_ID":"2022-022AT","MEAN_ELEMENT_THEORY":"SGP4","TIME_SYSTEM":"UTC","MEAN_ANOMALY":"283.9360","OBJECT_TYPE":"PAYLOAD","NORAD_CAT_ID":"51893","ARG_OF_PERICENTER":"76.1800","ECCENTRICITY":"0.00015030","MEAN_MOTION_DDOT":"0.0000000000000","EPOCH":"2023-01-27T19:00:43.069824","CENTER_NAME":"EARTH","TLE_LINE1":"1 51893U 22022AT  23027.79216516  .00000554  00000-0  52857-4 0  9990","ELEMENT_SET_NO":"999","PERIOD":"95.437","RCS_SIZE":"LARGE","MEAN_MOTION_DOT":"0.00000554","GP_ID":"223837821","CLASSIFICATION_TYPE":"U","PERIAPSIS":"538.663","OBJECT_NAME":"STARLINK-3579","SEMIMAJOR_AXIS":"6917.838","COUNTRY_CODE":"US","BSTAR":"0.00005285700000","REF_FRAME":"TEME","EPHEMERIS_TYPE":"0","APOAPSIS":"540.743","REV_AT_EPOCH":"5167","LAUNCH_DATE":"2022-03-03","INCLINATION":"53.2154","MEAN_MOTION":"15.08853826","DECAY_DATE":null,"FILE":"3763218","SITE":"AFETR","TLE_LINE2":"2 51893  53.2154  62.8615 0001503  76.1800 283.9360 15.08853826 51673","RA_OF_ASC_NODE":"62.8615"},{"TLE_LINE1":"1 51894U 22022AU  23027.79585779  .00002478  00000-0  17369-3 0  9996","ELEMENT_SET_NO":"999","PERIOD":"95.437","CENTER_NAME":"EARTH","EPOCH":"2023-01-27T19:06:02.113056","ECCENTRICITY":"0.00011060","ARG_OF_PERICENTER":"85.4217","MEAN_MOTION_DDOT":"0.0000000000000","NORAD_CAT_ID":"51894","MEAN_ANOMALY":"274.6901","OBJECT_TYPE":"PAYLOAD","TIME_SYSTEM":"UTC","MEAN_ELEMENT_THEORY":"SGP4","OBJECT_ID":"2022-022AU","CLASSIFICATION_TYPE":"U","GP_ID":"223838071","MEAN_MOTION_DOT":"0.00002478","RCS_SIZE":"LARGE","EPHEMERIS_TYPE":"0","BSTAR":"0.00017369000000","REF_FRAME":"TEME","COUNTRY_CODE":"US","OBJECT_NAME":"STARLINK-3595","SEMIMAJOR_AXIS":"6917.867","PERIAPSIS":"538.967","TLE_LINE2":"2 51894  53.2157  62.8427 0001106  85.4217 274.6901 15.08844452 51675","SITE":"AFETR","RA_OF_ASC_NODE":"62.8427","FILE":"3763218","DECAY_DATE":null,"INCLINATION":"53.2157","MEAN_MOTION":"15.08844452","LAUNCH_DATE":"2022-03-03","REV_AT_EPOCH":"5167","APOAPSIS":"540.497"},{"REV_AT_EPOCH":"5155","APOAPSIS":"540.454","MEAN_MOTION":"15.08835736","INCLINATION":"53.2176","LAUNCH_DATE":"2022-03-03","FILE":"3762956","DECAY_DATE":null,"SITE":"AFETR","TLE_LINE2":"2 51895  53.2176  64.6598 0001005 114.9006 245.2090 15.08835736 51553","RA_OF_ASC_NODE":"64.6598","OBJECT_NAME":"STARLINK-3594","SEMIMAJOR_AXIS":"6917.893","PERIAPSIS":"539.063","COUNTRY_CODE":"US","EPHEMERIS_TYPE":"0","BSTAR":"0.00015125000000","REF_FRAME":"TEME","MEAN_MOTION_DOT":"0.00002120","RCS_SIZE":"LARGE","GP_ID":"223806390","CLASSIFICATION_TYPE":"U","MEAN_ELEMENT_THEORY":"SGP4","TIME_SYSTEM":"UTC","OBJECT_ID":"2022-022AV","NORAD_CAT_ID":"51895","MEAN_ANOMALY":"245.2090","OBJECT_TYPE":"PAYLOAD","EPOCH":"2023-01-27T09:23:07.593504","ECCENTRICITY":"0.00010050","ARG_OF_PERICENTER":"114.9006","MEAN_MOTION_DDOT":"0.0000000000000","TLE_LINE1":"1 51895U 22022AV  23027.39106011  .00002120  00000-0  15125-3 0  9993","PERIOD":"95.438","ELEMENT_SET_NO":"999","CENTER_NAME":"EARTH"},{"EPHEMERIS_TYPE":"0","REF_FRAME":"TEME","BSTAR":"0.00016608000000","COUNTRY_CODE":"US","SEMIMAJOR_AXIS":"6917.862","OBJECT_NAME":"STARLINK-3593","PERIAPSIS":"538.759","RA_OF_ASC_NODE":"64.0622","SITE":"AFETR","TLE_LINE2":"2 51896  53.2156  64.0622 0001400 102.6766 257.4382 15.08845964 51621","FILE":"3762956","DECAY_DATE":null,"MEAN_MOTION":"15.08845964","INCLINATION":"53.2156","LAUNCH_DATE":"2022-03-03","APOAPSIS":"540.696","REV_AT_EPOCH":"5162","ELEMENT_SET_NO":"999","PERIOD":"95.437","TLE_LINE1":"1 51896U 22022AW  23027.52449206  .00002357  00000-0  16608-3 0  9994","CENTER_NAME":"EARTH","EPOCH":"2023-01-27T12:35:16.113984","MEAN_MOTION_DDOT":"0.0000000000000","ARG_OF_PERICENTER":"102.6766","ECCENTRICITY":"0.00014000","NORAD_CAT_ID":"51896","OBJECT_TYPE":"PAYLOAD","MEAN_ANOMALY":"257.4382","TIME_SYSTEM":"UTC","MEAN_ELEMENT_THEORY":"SGP4","OBJECT_ID":"2022-022AW","CLASSIFICATION_TYPE":"U","GP_ID":"223806140","MEAN_MOTION_DOT":"0.00002357","RCS_SIZE":"LARGE"},{"NORAD_CAT_ID":"51897","OBJECT_TYPE":"PAYLOAD","MEAN_ANOMALY":"304.1816","TIME_SYSTEM":"UTC","MEAN_ELEMENT_THEORY":"SGP4","OBJECT_ID":"2022-022AX","PERIOD":"95.437","ELEMENT_SET_NO":"999","TLE_LINE1":"1 51897U 22022AX  23027.38737772  .00000392  00000-0  42706-4 0  9993","CENTER_NAME":"EARTH","EPOCH":"2023-01-27T09:17:49.435008","MEAN_MOTION_DDOT":"0.0000000000000","ECCENTRICITY":"0.00021070","ARG_OF_PERICENTER":"55.9376","GP_ID":"223806889","MEAN_MOTION_DOT":"0.00000392","RCS_SIZE":"LARGE","CLASSIFICATION_TYPE":"U","SEMIMAJOR_AXIS":"6917.871","OBJECT_NAME":"STARLINK-3598","PERIAPSIS":"538.279","EPHEMERIS_TYPE":"0","REF_FRAME":"TEME","BSTAR":"0.00004270600000","COUNTRY_CODE":"US","INCLINATION":"53.2159","MEAN_MOTION":"15.08842959","LAUNCH_DATE":"2022-03-03","REV_AT_EPOCH":"5155","APOAPSIS":"541.194","RA_OF_ASC_NODE":"64.6770","TLE_LINE2":"2 51897  53.2159  64.6770 0002107  55.9376 304.1816 15.08842959 51552","SITE":"AFETR","FILE":"3762956","DECAY_DATE":null},{"MEAN_MOTION_DOT":"0.00001819","RCS_SIZE":"LARGE","GP_ID":"223807619","CLASSIFICATION_TYPE":"U","MEAN_ELEMENT_THEORY":"SGP4","TIME_SYSTEM":"UTC","OBJECT_ID":"2022-022AY","NORAD_CAT_ID":"51898","OBJECT_TYPE":"PAYLOAD","MEAN_ANOMALY":"252.0833","EPOCH":"2023-01-27T12:23:17.596032","MEAN_MOTION_DDOT":"0.0000000000000","ECCENTRICITY":"0.00013570","ARG_OF_PERICENTER":"108.0307","PERIOD":"95.437","ELEMENT_SET_NO":"999","TLE_LINE1":"1 51898U 22022AY  23027.51617588  .00001819  00000-0  13232-3 0  9997","CENTER_NAME":"EARTH","REV_AT_EPOCH":"5162","APOAPSIS":"540.665","MEAN_MOTION":"15.08846245","INCLINATION":"53.2150","LAUNCH_DATE":"2022-03-03","FILE":"3762956","DECAY_DATE":null,"RA_OF_ASC_NODE":"64.0941","TLE_LINE2":"2 51898  53.2150  64.0941 0001357 108.0307 252.0833 15.08846245 51628","SITE":"AFETR","SEMIMAJOR_AXIS":"6917.861","OBJECT_NAME":"STARLINK-3597","PERIAPSIS":"538.788","COUNTRY_CODE":"US","EPHEMERIS_TYPE":"0","REF_FRAME":"TEME","BSTAR":"0.00013232000000"},{"PERIAPSIS":"538.814","OBJECT_NAME":"STARLINK-3700","SEMIMAJOR_AXIS":"6917.892","COUNTRY_CODE":"US","BSTAR":"-0.00002714400000","REF_FRAME":"TEME","EPHEMERIS_TYPE":"0","REV_AT_EPOCH":"4957","APOAPSIS":"540.699","LAUNCH_DATE":"2022-03-09","MEAN_MOTION":"15.08836321","INCLINATION":"53.2164","DECAY_DATE":null,"FILE":"3763218","TLE_LINE2":"2 51956  53.2164  92.5092 0001362  89.2835 270.8313 15.08836321 49579","SITE":"AFETR","RA_OF_ASC_NODE":"92.5092","OBJECT_ID":"2022-025A","TIME_SYSTEM":"UTC","MEAN_ELEMENT_THEORY":"SGP4","MEAN_ANOMALY":"270.8313","OBJECT_TYPE":"PAYLOAD","NORAD_CAT_ID":"51956","ECCENTRICITY":"0.00013620","ARG_OF_PERICENTER":"89.2835","MEAN_MOTION_DDOT":"0.0000000000000","EPOCH":"2023-01-27T20:53:20.838048","CENTER_NAME":"EARTH","TLE_LINE1":"1 51956U 22025A   23027.87038007 -.00000720  00000-0 -27144-4 0  9997","PERIOD":"95.438","ELEMENT_SET_NO":"999","RCS_SIZE":"LARGE","MEAN_MOTION_DOT":"-0.00000720","GP_ID":"223838324","CLASSIFICATION_TYPE":"U"},{"SEMIMAJOR_AXIS":"6917.867","OBJECT_NAME":"STARLINK-3694","PERIAPSIS":"538.848","EPHEMERIS_TYPE":"0","REF_FRAME":"TEME","BSTAR":"0.00013152000000","COUNTRY_CODE":"US","MEAN_MOTION":"15.08844483","INCLINATION":"53.2151","LAUNCH_DATE":"2022-03-09","REV_AT_EPOCH":"4950","APOAPSIS":"540.616","RA_OF_ASC_NODE":"94.6680","TLE_LINE2":"2 51957  53.2151  94.6680 0001278 105.2528 254.8606 15.08844483 49504","SITE":"AFETR","FILE":"3762956","DECAY_DATE":null,"NORAD_CAT_ID":"51957","OBJECT_TYPE":"PAYLOAD","MEAN_ANOMALY":"254.8606","TIME_SYSTEM":"UTC","MEAN_ELEMENT_THEORY":"SGP4","OBJECT_ID":"2022-025B","PERIOD":"95.437","ELEMENT_SET_NO":"999","TLE_LINE1":"1 51957U 22025B   23027.38829571  .00001806  00000-0  13152-3 0  9995","CENTER_NAME":"EARTH","EPOCH":"2023-01-27T09:19:08.749344","MEAN_MOTION_DDOT":"0.0000000000000","ARG_OF_PERICENTER":"105.2528","ECCENTRICITY":"0.00012780","GP_ID":"223807621","MEAN_MOTION_DOT":"0.00001806","RCS_SIZE":"LARGE","CLASSIFICATION_TYPE":"U"},{"ARG_OF_PERICENTER":"99.5068","ECCENTRICITY":"0.00012080","MEAN_MOTION_DDOT":"0.0000000000000","EPOCH":"2023-01-27T20:48:02.541312","CENTER_NAME":"EARTH","TLE_LINE1":"1 51958U 22025C   23027.86669608 -.00000899  00000-0 -38383-4 0  9999","ELEMENT_SET_NO":"999","PERIOD":"95.438","OBJECT_ID":"2022-025C","TIME_SYSTEM":"UTC","MEAN_ELEMENT_THEORY":"SGP4","MEAN_ANOMALY":"260.6061","OBJECT_TYPE":"PAYLOAD","NORAD_CAT_ID":"51958","CLASSIFICATION_TYPE":"U","RCS_SIZE":"LARGE","MEAN_MOTION_DOT":"-0.00000899","GP_ID":"223839325","COUNTRY_CODE":"US","BSTAR":"-0.00003838300000","REF_FRAME":"TEME","EPHEMERIS_TYPE":"0","PERIAPSIS":"538.914","OBJECT_NAME":"STARLINK-3692","SEMIMAJOR_AXIS":"6917.885","DECAY_DATE":null,"FILE":"3763218","TLE_LINE2":"2 51958  53.2156  92.5218 0001208  99.5068 260.6061 15.08838652 49579","SITE":"AFETR","RA_OF_ASC_NODE":"92.5218","REV_AT_EPOCH":"4957","APOAPSIS":"540.585","LAUNCH_DATE":"2022-03-09","MEAN_MOTION":"15.08838652","INCLINATION":"53.2156"},{"BSTAR":"0.00009880500000","REF_FRAME":"TEME","EPHEMERIS_TYPE":"0","COUNTRY_CODE":"US","PERIAPSIS":"538.780","OBJECT_NAME":"STARLINK-3704","SEMIMAJOR_AXIS":"6917.855","TLE_LINE2":"2 51959  53.2159  94.0471 0001359 119.5755 240.5373 15.08848158 49524","SITE":"AFETR","RA_OF_ASC_NODE":"94.0471","DECAY_DATE":null,"FILE":"3762956","LAUNCH_DATE":"2022-03-09","INCLINATION":"53.2159","MEAN_MOTION":"15.08848158","APOAPSIS":"540.661","REV_AT_EPOCH":"4952","CENTER_NAME":"EARTH","TLE_LINE1":"1 51959U 22025D   23027.52445237  .00001285  00000-0  98805-4 0  9996","PERIOD":"95.437","ELEMENT_SET_NO":"999","ECCENTRICITY":"0.00013590","ARG_OF_PERICENTER":"119.5755","MEAN_MOTION_DDOT":"0.0000000000000","EPOCH":"2023-01-27T12:35:12.684768","MEAN_ANOMALY":"240.5373","OBJECT_TYPE":"PAYLOAD","NORAD_CAT_ID":"51959","OBJECT_ID":"2022-025D","MEAN_ELEMENT_THEORY":"SGP4","TIME_SYSTEM":"UTC","CLASSIFICATION_TYPE":"U","GP_ID":"223806642","RCS_SIZE":"LARGE","MEAN_MOTION_DOT":"0.00001285"}];
